[
    {
        "Altitude(m)": 624792.7590084246,
        "Argument of Periapsis(deg)": 0.0,
        "Eccentricity": 0.0,
        "Inclination(deg)": 60.0,
        "Latitude(deg)": -59.14704796720757,
        "Longitude(deg)": 164.02623595205787,
        "Mean Anomaly(deg)": 261.8182,
        "RAAN(deg)": 10.0,
        "Satellite Name": "Test1 60",
        "Satellite Number": 60,
        "Semi-Major Axis(m)": 6980739.136638005,
        "Time(s)": 0
    },
    {
        "Altitude(m)": 624842.1517281489,
        "Argument of Periapsis(deg)": 0.00010418945913296404,
        "Eccentricity": 0.0,
        "Inclination(deg)": 60.0,
        "Latitude(deg)": -59.28913353627992,
        "Longitude(deg)": 165.15573779830984,
        "Mean Anomaly(deg)": 262.43830614546187,
        "RAAN(deg)": 9.999579950860259,
        "Satellite Name": "Test1 60",
        "Satellite Number": 60,
        "Semi-Major Axis(m)": 6980739.136638005,
        "Time(s)": 10
    }
]